start=new Date('2023-03-31T00:00:00.000Z').valueOf();
sats=[{"ECCENTRICITY":"0.00010290","MEAN_MOTION_DOT":"0.00001513","RCS_SIZE":"LARGE","MEAN_ELEMENT_THEORY":"SGP4","SITE":"AFETR","INCLINATION":"53.2182","PERIAPSIS":"539.070","MEAN_ANOMALY":"262.8958","BSTAR":"0.00011314000000","ARG_OF_PERICENTER":"97.2151","REV_AT_EPOCH":"3374","ELEMENT_SET_NO":"999","TLE_LINE1":"1 53630U 22104AU  23089.47596849  .00001513  00000-0  11314-3 0  9993","CENTER_NAME":"EARTH","OBJECT_ID":"2022-104AU","TIME_SYSTEM":"UTC","OBJECT_NAME":"STARLINK-4598","EPOCH":"2023-03-30T11:25:23.677536","DECAY_DATE":null,"FILE":"3875726","CLASSIFICATION_TYPE":"U","PERIOD":"95.438","TLE_LINE2":"2 53630  53.2182  11.0116 0001029  97.2151 262.8958 15.08828093 33748","EPHEMERIS_TYPE":"0","REF_FRAME":"TEME","COUNTRY_CODE":"US","GP_ID":"229186244","MEAN_MOTION_DDOT":"0.0000000000000","RA_OF_ASC_NODE":"11.0116","MEAN_MOTION":"15.08828093","OBJECT_TYPE":"PAYLOAD","LAUNCH_DATE":"2022-08-28","APOAPSIS":"540.494","NORAD_CAT_ID":"53630","SEMIMAJOR_AXIS":"6917.917"},{"SEMIMAJOR_AXIS":"6917.810","APOAPSIS":"540.428","NORAD_CAT_ID":"53631","LAUNCH_DATE":"2022-08-28","OBJECT_TYPE":"PAYLOAD","RA_OF_ASC_NODE":"20.4310","MEAN_MOTION":"15.08863183","MEAN_MOTION_DDOT":"0.0000000000000","GP_ID":"229185995","REF_FRAME":"TEME","COUNTRY_CODE":"US","EPHEMERIS_TYPE":"0","TLE_LINE2":"2 53631  53.2175  20.4310 0001089  82.2559 277.8557 15.08863183 33440","CLASSIFICATION_TYPE":"U","PERIOD":"95.436","FILE":"3875726","DECAY_DATE":null,"EPOCH":"2023-03-30T12:01:02.668512","OBJECT_NAME":"STARLINK-4599","TIME_SYSTEM":"UTC","OBJECT_ID":"2022-104AV","CENTER_NAME":"EARTH","TLE_LINE1":"1 53631U 22104AV  23089.50072533  .00015571  00000-0  99360-3 0  9993","ELEMENT_SET_NO":"999","ARG_OF_PERICENTER":"82.2559","REV_AT_EPOCH":"3344","BSTAR":"0.00099360000000","MEAN_ANOMALY":"277.8557","PERIAPSIS":"538.921","INCLINATION":"53.2175","SITE":"AFETR","MEAN_ELEMENT_THEORY":"SGP4","RCS_SIZE":"LARGE","MEAN_MOTION_DOT":"0.00015571","ECCENTRICITY":"0.00010890"},{"TLE_LINE1":"1 53632U 22104AW  23089.46857903  .00003951  00000-0  26621-3 0  9990","ELEMENT_SET_NO":"999","REV_AT_EPOCH":"3390","ARG_OF_PERICENTER":"89.1760","BSTAR":"0.00026621000000","MEAN_ANOMALY":"270.9387","PERIAPSIS":"538.820","INCLINATION":"53.2190","SITE":"AFETR","MEAN_ELEMENT_THEORY":"SGP4","RCS_SIZE":"LARGE","MEAN_MOTION_DOT":"0.00003951","ECCENTRICITY":"0.00013530","SEMIMAJOR_AXIS":"6917.891","NORAD_CAT_ID":"53632","APOAPSIS":"540.692","LAUNCH_DATE":"2022-08-28","OBJECT_TYPE":"PAYLOAD","MEAN_MOTION":"15.08836652","RA_OF_ASC_NODE":"10.9607","MEAN_MOTION_DDOT":"0.0000000000000","GP_ID":"229187246","COUNTRY_CODE":"US","REF_FRAME":"TEME","EPHEMERIS_TYPE":"0","TLE_LINE2":"2 53632  53.2190  10.9607 0001353  89.1760 270.9387 15.08836652 33902","CLASSIFICATION_TYPE":"U","PERIOD":"95.438","FILE":"3875726","DECAY_DATE":null,"EPOCH":"2023-03-30T11:14:45.228192","OBJECT_NAME":"STARLINK-4606","TIME_SYSTEM":"UTC","OBJECT_ID":"2022-104AW","CENTER_NAME":"EARTH"},{"PERIOD":"95.436","CLASSIFICATION_TYPE":"U","FILE":"3875726","DECAY_DATE":null,"EPOCH":"2023-03-30T04:58:30.071136","REF_FRAME":"TEME","COUNTRY_CODE":"US","EPHEMERIS_TYPE":"0","TLE_LINE2":"2 53633  53.2178  12.1732 0001208 113.5180 246.5939 15.08860527 33538","CENTER_NAME":"EARTH","OBJECT_NAME":"STARLINK-4593","TIME_SYSTEM":"UTC","OBJECT_ID":"2022-104AX","SEMIMAJOR_AXIS":"6917.818","APOAPSIS":"540.518","NORAD_CAT_ID":"53633","LAUNCH_DATE":"2022-08-28","MEAN_MOTION_DDOT":"0.0000000000000","GP_ID":"229185723","OBJECT_TYPE":"PAYLOAD","RA_OF_ASC_NODE":"12.1732","MEAN_MOTION":"15.08860527","MEAN_ELEMENT_THEORY":"SGP4","INCLINATION":"53.2178","SITE":"AFETR","ECCENTRICITY":"0.00012080","RCS_SIZE":"LARGE","MEAN_MOTION_DOT":"-0.00001154","BSTAR":"-0.00005439200000","TLE_LINE1":"1 53633U 22104AX  23089.20729249 -.00001154  00000-0 -54392-4 0  9996","ELEMENT_SET_NO":"999","ARG_OF_PERICENTER":"113.5180","REV_AT_EPOCH":"3353","PERIAPSIS":"538.847","MEAN_ANOMALY":"246.5939"},{"CENTER_NAME":"EARTH","OBJECT_ID":"2022-104AY","OBJECT_NAME":"STARLINK-4592","TIME_SYSTEM":"UTC","DECAY_DATE":null,"EPOCH":"2023-03-30T01:31:49.797120","CLASSIFICATION_TYPE":"U","PERIOD":"95.438","FILE":"3875726","EPHEMERIS_TYPE":"0","TLE_LINE2":"2 53634  53.2195  12.6991 0001394  91.9738 268.1414 15.08838040 33841","COUNTRY_CODE":"US","REF_FRAME":"TEME","MEAN_MOTION_DDOT":"0.0000000000000","GP_ID":"229185745","RA_OF_ASC_NODE":"12.6991","MEAN_MOTION":"15.08838040","OBJECT_TYPE":"PAYLOAD","LAUNCH_DATE":"2022-08-28","SEMIMAJOR_AXIS":"6917.886","APOAPSIS":"540.716","NORAD_CAT_ID":"53634","ECCENTRICITY":"0.00013940","MEAN_MOTION_DOT":"-0.00002066","RCS_SIZE":"LARGE","MEAN_ELEMENT_THEORY":"SGP4","SITE":"AFETR","INCLINATION":"53.2195","PERIAPSIS":"538.787","MEAN_ANOMALY":"268.1414","BSTAR":"-0.00011177000000","ELEMENT_SET_NO":"999","REV_AT_EPOCH":"3384","ARG_OF_PERICENTER":"91.9738","TLE_LINE1":"1 53634U 22104AY  23089.06377080 -.00002066  00000-0 -11177-3 0  9999"},{"DECAY_DATE":null,"EPOCH":"2023-03-30T04:47:54.305376","CLASSIFICATION_TYPE":"U","PERIOD":"95.437","FILE":"3875726","EPHEMERIS_TYPE":"0","TLE_LINE2":"2 53635  53.2193  12.1232 0001307 113.2457 246.8673 15.08843412 33864","COUNTRY_CODE":"US","REF_FRAME":"TEME","CENTER_NAME":"EARTH","OBJECT_ID":"2022-104AZ","OBJECT_NAME":"STARLINK-4587","TIME_SYSTEM":"UTC","LAUNCH_DATE":"2022-08-28","SEMIMAJOR_AXIS":"6917.870","APOAPSIS":"540.639","NORAD_CAT_ID":"53635","MEAN_MOTION_DDOT":"0.0000000000000","GP_ID":"229186495","RA_OF_ASC_NODE":"12.1232","MEAN_MOTION":"15.08843412","OBJECT_TYPE":"PAYLOAD","MEAN_ELEMENT_THEORY":"SGP4","SITE":"AFETR","INCLINATION":"53.2193","ECCENTRICITY":"0.00013070","MEAN_MOTION_DOT":"-0.00001617","RCS_SIZE":"LARGE","BSTAR":"-0.00008350600000","ELEMENT_SET_NO":"999","REV_AT_EPOCH":"3386","ARG_OF_PERICENTER":"113.2457","TLE_LINE1":"1 53635U 22104AZ  23089.19993409 -.00001617  00000-0 -83506-4 0  9990","PERIAPSIS":"538.831","MEAN_ANOMALY":"246.8673"},{"GP_ID":"229186747","MEAN_MOTION_DDOT":"0.0000000000000","RA_OF_ASC_NODE":"12.0575","MEAN_MOTION":"15.08852494","OBJECT_TYPE":"PAYLOAD","LAUNCH_DATE":"2022-08-28","APOAPSIS":"540.717","NORAD_CAT_ID":"53636","SEMIMAJOR_AXIS":"6917.842","CENTER_NAME":"EARTH","OBJECT_ID":"2022-104BA","TIME_SYSTEM":"UTC","OBJECT_NAME":"STARLINK-4586","EPOCH":"2023-03-30T04:31:58.687680","DECAY_DATE":null,"FILE":"3875726","PERIOD":"95.437","CLASSIFICATION_TYPE":"U","TLE_LINE2":"2 53636  53.2165  12.0575 0001460  86.2544 273.8616 15.08852494 33866","EPHEMERIS_TYPE":"0","REF_FRAME":"TEME","COUNTRY_CODE":"US","PERIAPSIS":"538.697","MEAN_ANOMALY":"273.8616","BSTAR":"0.00093025000000","ARG_OF_PERICENTER":"86.2544","REV_AT_EPOCH":"3386","ELEMENT_SET_NO":"999","TLE_LINE1":"1 53636U 22104BA  23089.18887370  .00014553  00000-0  93025-3 0  9996","ECCENTRICITY":"0.00014600","MEAN_MOTION_DOT":"0.00014553","RCS_SIZE":"LARGE","MEAN_ELEMENT_THEORY":"SGP4","SITE":"AFETR","INCLINATION":"53.2165"},{"TLE_LINE2":"2 53637  53.2177  12.6764 0001225  72.1330 287.9796 15.08848196 33849","EPHEMERIS_TYPE":"0","COUNTRY_CODE":"US","REF_FRAME":"TEME","EPOCH":"2023-03-30T01:26:31.826112","DECAY_DATE":null,"FILE":"3875726","CLASSIFICATION_TYPE":"U","PERIOD":"95.437","OBJECT_ID":"2022-104BB","TIME_SYSTEM":"UTC","OBJECT_NAME":"STARLINK-4396","CENTER_NAME":"EARTH","LAUNCH_DATE":"2022-08-28","APOAPSIS":"540.568","NORAD_CAT_ID":"53637","SEMIMAJOR_AXIS":"6917.855","MEAN_MOTION":"15.08848196","RA_OF_ASC_NODE":"12.6764","OBJECT_TYPE":"PAYLOAD","GP_ID":"229186223","MEAN_MOTION_DDOT":"0.0000000000000","SITE":"AFETR","INCLINATION":"53.2177","MEAN_ELEMENT_THEORY":"SGP4","MEAN_MOTION_DOT":"0.00005197","RCS_SIZE":"LARGE","ECCENTRICITY":"0.00012250","ARG_OF_PERICENTER":"72.1330","REV_AT_EPOCH":"3384","ELEMENT_SET_NO":"999","TLE_LINE1":"1 53637U 22104BB  23089.06009058  .00005197  00000-0  34432-3 0  9994","BSTAR":"0.00034432000000","MEAN_ANOMALY":"287.9796","PERIAPSIS":"538.873"},{"REF_FRAME":"TEME","COUNTRY_CODE":"US","TLE_LINE2":"2 53638  53.2178  10.4606 0001105 100.8631 259.2485 15.08840730 33913","EPHEMERIS_TYPE":"0","FILE":"3875726","PERIOD":"95.438","CLASSIFICATION_TYPE":"U","EPOCH":"2023-03-30T12:02:23.406720","DECAY_DATE":null,"TIME_SYSTEM":"UTC","OBJECT_NAME":"STARLINK-4594","OBJECT_ID":"2022-104BC","CENTER_NAME":"EARTH","NORAD_CAT_ID":"53638","APOAPSIS":"540.508","SEMIMAJOR_AXIS":"6917.878","LAUNCH_DATE":"2022-08-28","OBJECT_TYPE":"PAYLOAD","RA_OF_ASC_NODE":"10.4606","MEAN_MOTION":"15.08840730","GP_ID":"229186245","MEAN_MOTION_DDOT":"0.0000000000000","INCLINATION":"53.2178","SITE":"AFETR","MEAN_ELEMENT_THEORY":"SGP4","RCS_SIZE":"LARGE","MEAN_MOTION_DOT":"0.00000016","ECCENTRICITY":"0.00011050","TLE_LINE1":"1 53638U 22104BC  23089.50165980  .00000016  00000-0  19057-4 0  9993","REV_AT_EPOCH":"3391","ARG_OF_PERICENTER":"100.8631","ELEMENT_SET_NO":"999","BSTAR":"0.00001905700000","MEAN_ANOMALY":"259.2485","PERIAPSIS":"538.979"},{"NORAD_CAT_ID":"53639","APOAPSIS":"540.969","SEMIMAJOR_AXIS":"6917.880","LAUNCH_DATE":"2022-08-28","OBJECT_TYPE":"PAYLOAD","MEAN_MOTION":"15.08840176","RA_OF_ASC_NODE":"10.5457","GP_ID":"229185996","MEAN_MOTION_DDOT":"0.0000000000000","REF_FRAME":"TEME","COUNTRY_CODE":"US","TLE_LINE2":"2 53639  53.2179  10.5457 0001769  78.9626 281.1565 15.08840176 33743","EPHEMERIS_TYPE":"0","FILE":"3875726","CLASSIFICATION_TYPE":"U","PERIOD":"95.438","EPOCH":"2023-03-30T12:23:37.001472","DECAY_DATE":null,"TIME_SYSTEM":"UTC","OBJECT_NAME":"STARLINK-4422","OBJECT_ID":"2022-104BD","CENTER_NAME":"EARTH","TLE_LINE1":"1 53639U 22104BD  23089.51640048  .00004814  00000-0  32034-3 0  9997","REV_AT_EPOCH":"3374","ARG_OF_PERICENTER":"78.9626","ELEMENT_SET_NO":"999","BSTAR":"0.00032034000000","MEAN_ANOMALY":"281.1565","PERIAPSIS":"538.521","INCLINATION":"53.2179","SITE":"AFETR","MEAN_ELEMENT_THEORY":"SGP4","RCS_SIZE":"LARGE","MEAN_MOTION_DOT":"0.00004814","ECCENTRICITY":"0.00017690"}];
